{
  "norad_id": 68394,
  "name": "STARLINK-37157",
  "history": [
    {
      "epoch": "2026-04-02T18:00:01.999296Z",
      "apogee_km": 275.8740723741148,
      "perigee_km": 273.7225131004425,
      "latitude_deg": 5.069421287543878,
      "longitude_deg": -46.904129033019146,
      "height_km": 277.8153843577769,
      "semi_major_axis_km": 6652.935292737278,
      "eccentricity": 0.0001617,
      "inclination_deg": 97.282,
      "raan_deg": 233.5526,
      "arg_perigee_deg": 66.7918,
      "mean_anomaly_deg": 107.9863,
      "mean_motion_rev_day": 15.99863067
    }
  ]
}